NORAD_CAT_ID,OBJECT_NAME,OBJECT_TYPE,EPOCH,MEAN_MOTION,ECCENTRICITY,INCLINATION,RA_OF_ASC_NODE,ARG_OF_PERICENTER,MEAN_ANOMALY,BSTAR,MEAN_MOTION_DOT,MEAN_MOTION_DDOT,TLE_LINE0,TLE_LINE1,TLE_LINE2,SEMIMAJOR_AXIS,PERIOD,APOGEE,PERIGEE,DECAYED
53631.0,STARLINK-4599,PAYLOAD,2023-01-10 17:47:26,15.08844387,0.00025,53.2192,14.0005,42.6522,317.4664,5.4865e-05,5.85e-06,0.0,0 STARLINK-4599,1 53631U 22104AV  23010.74127962  .00000585  00000-0  54865-4 0  9991,2 53631  53.2192  14.0005 0002500  42.6522 317.4664 15.08844387 21552,6917.866999999998,95.437,541.461,538.003,0.0
53631.0,STARLINK-4599,PAYLOAD,2023-01-11 04:55:07,15.08853592,0.0002421,53.2191,11.9195,38.8812,321.2354,0.00013359,1.839e-05,0.0,0 STARLINK-4599,1 53631U 22104AV  23011.20494745  .00001839  00000-0  13359-3 0  9994,2 53631  53.2191  11.9195 0002421  38.8812 321.2354 15.08853592 20936,6917.839,95.437,541.379,538.029,0.0
53631.0,STARLINK-4599,PAYLOAD,2023-01-11 11:16:40,15.0884113,0.0002252,53.2203,10.7301,37.0404,323.0744,0.00015174,2.128e-05,0.0,0 STARLINK-4599,1 53631U 22104AV  23011.46991280  .00002128  00000-0  15174-3 0  9997,2 53631  53.2203  10.7301 0002252  37.0404 323.0744 15.08841130 20978,6917.877,95.437,541.3,538.184,0.0
53631.0,STARLINK-4599,PAYLOAD,2023-01-12 11:07:28,15.08841778,0.0002341,53.2193,6.2711,33.7404,326.3736,-2.8862e-05,-7.48e-06,0.0,0 STARLINK-4599,1 53631U 22104AV  23012.46351863 -.00000748  00000-0 -28862-4 0  9992,2 53631  53.2193   6.2711 0002341  33.7404 326.3736 15.08841778 21126,6917.875,95.437,541.359,538.12,0.0
53631.0,STARLINK-4599,PAYLOAD,2023-01-13 03:01:17,15.0885584,0.0002363,53.2205,3.2960000000000003,29.8086,330.3041,4.832600000000001e-05,4.81e-06,0.0,0 STARLINK-4599,1 53631U 22104AV  23013.12590024  .00000481  00000-0  48326-4 0  9999,2 53631  53.2205   3.2960 0002363  29.8086 330.3041 15.08855840 21229,6917.831999999999,95.437,541.332,538.062,0.0
53631.0,STARLINK-4599,PAYLOAD,2023-01-13 07:47:25,15.08873064,0.0002251,53.2202,2.4041,31.3683,328.7443,0.00018706,2.693e-05,0.0,0 STARLINK-4599,1 53631U 22104AV  23013.32460248  .00002693  00000-0  18706-3 0  9990,2 53631  53.2202   2.4041 0002251  31.3683 328.7443 15.08873064 21252,6917.779,95.435,541.202,538.087,0.0
53631.0,STARLINK-4599,PAYLOAD,2023-01-13 22:05:57,15.08822487,0.0002692,53.22,359.7278,49.6645,310.4582,-0.00014282,-2.56e-05,0.0,0 STARLINK-4599,1 53631U 22104AV  23013.92080817 -.00002560  00000-0 -14282-3 0  9996,2 53631  53.2200 359.7278 0002692  49.6645 310.4582 15.08822487 22031,6917.934,95.439,541.661,537.937,0.0
53631.0,STARLINK-4599,PAYLOAD,2023-01-14 06:02:54,15.0881225,0.0002081,53.2188,358.237,37.1968,322.9168,-0.00022036,-3.791e-05,0.0,0 STARLINK-4599,1 53631U 22104AV  23014.25202034 -.00003791  00000-0 -22036-3 0  9993,2 53631  53.2188 358.2370 0002081  37.1968 322.9168 15.08812250 21398,6917.965,95.439,541.27,538.391,0.0
53631.0,STARLINK-4599,PAYLOAD,2023-01-14 21:56:45,15.0882655,0.0001756,53.2202,355.267,41.1733,318.9391,-0.0001544,-2.744e-05,0.0,0 STARLINK-4599,1 53631U 22104AV  23014.91441681 -.00002744  00000-0 -15440-3 0  9997,2 53631  53.2202 355.2670 0001756  41.1733 318.9391 15.08826550 21490,6917.922,95.438,541.001,538.572,0.0
53631.0,STARLINK-4599,PAYLOAD,2023-01-15 09:04:26,15.08852387,0.0002637,53.2189,353.186,52.7771,307.3461,-9.0779e-05,-1.734e-05,0.0,0 STARLINK-4599,1 53631U 22104AV  23015.37808083 -.00001734  00000-0 -90779-4 0  9998,2 53631  53.2189 353.1860 0002637  52.7771 307.3461 15.08852387 21566,6917.843000000001,95.437,541.5319999999999,537.883,0.0
53631.0,STARLINK-4599,PAYLOAD,2023-01-15 15:25:58,15.08849509,0.0001729,53.219,351.9954,47.4319,312.6819,-0.00012606,-2.294e-05,0.0,0 STARLINK-4599,1 53631U 22104AV  23015.64303922 -.00002294  00000-0 -12606-3 0  9994,2 53631  53.2190 351.9954 0001729  47.4319 312.6819 15.08849509 22297,6917.851,95.437,540.9119999999999,538.52,0.0
53631.0,STARLINK-4599,PAYLOAD,2023-01-16 05:44:27,15.08829515,0.0001585999999999,53.2189,349.3176,58.1879,301.9267,0.00030162,4.514e-05,0.0,0 STARLINK-4599,1 53631U 22104AV  23016.23920543  .00004514  00000-0  30162-3 0  9996,2 53631  53.2189 349.3176 0001586  58.1879 301.9267 15.08829515 21699,6917.911999999999,95.438,540.875,538.68,0.0
53631.0,STARLINK-4599,PAYLOAD,2023-01-16 10:30:36,15.08835517,0.0001441999999999,53.2185,348.4282,82.8516,277.264,0.00029607,4.427e-05,0.0,0 STARLINK-4599,1 53631U 22104AV  23016.43792282  .00004427  00000-0  29607-3 0  9990,2 53631  53.2185 348.4282 0001442  82.8516 277.2640 15.08835517 22416,6917.894,95.438,540.757,538.762,0.0
53631.0,STARLINK-4599,PAYLOAD,2023-01-17 03:59:54,15.08814156,0.0001973,53.2168,345.1576,77.7086,282.4127,-0.00020584,-3.5600000000000005e-05,0.0,0 STARLINK-4599,1 53631U 22104AV  23017.16660450 -.00003560  00000-0 -20584-3 0  9996,2 53631  53.2168 345.1576 0001973  77.7086 282.4127 15.08814156 21830,6917.959,95.439,541.189,538.4590000000001,0.0
53631.0,STARLINK-4599,PAYLOAD,2023-01-17 07:10:40,15.08819212,0.0001705,53.2175,344.5622,79.5823,280.5361,-0.00022493,-3.864e-05,0.0,0 STARLINK-4599,1 53631U 22104AV  23017.29908260 -.00003864  00000-0 -22493-3 0  9992,2 53631  53.2175 344.5622 0001705  79.5823 280.5361 15.08819212 22541,6917.944,95.439,540.988,538.629,0.0
53631.0,STARLINK-4599,PAYLOAD,2023-01-17 15:07:35,15.08829732,0.0001511,53.2195,343.0726,92.5873,267.5292,-3.3202e-05,-8.16e-06,0.0,0 STARLINK-4599,1 53631U 22104AV  23017.63027213 -.00000816  00000-0 -33202-4 0  9995,2 53631  53.2195 343.0726 0001511  92.5873 267.5292 15.08829732 21902,6917.911999999999,95.438,540.822,538.731,0.0
53631.0,STARLINK-4599,PAYLOAD,2023-01-17 21:29:07,15.08844158,0.0001966,53.2186,341.8829,101.2959,258.8254,-3.1122e-05,-7.84e-06,0.0,0 STARLINK-4599,1 53631U 22104AV  23017.89522399 -.00000784  00000-0 -31122-4 0  9991,2 53631  53.2186 341.8829 0001966 101.2959 258.8254 15.08844158 21943,6917.868,95.437,541.0930000000001,538.373,0.0
53631.0,STARLINK-4599,PAYLOAD,2023-01-18 03:50:39,15.08851316,0.0001301,53.2167,340.6995,89.2429,270.8712,0.00012623,1.722e-05,0.0,0 STARLINK-4599,1 53631U 22104AV  23018.16017639  .00001722  00000-0  12623-3 0  9993,2 53631  53.2167 340.6995 0001301  89.2429 270.8712 15.08851316 22671,6917.846,95.437,540.611,538.811,0.0
53631.0,STARLINK-4599,PAYLOAD,2023-01-18 14:58:20,15.08850727,0.0001309,53.2164,338.61800000000005,85.2093,274.9048,0.00011471,1.539e-05,0.0,0 STARLINK-4599,1 53631U 22104AV  23018.62385399  .00001539  00000-0  11471-3 0  9991,2 53631  53.2164 338.6180 0001309  85.2093 274.9048 15.08850727 22056,6917.848000000001,95.437,540.618,538.807,0.0
53631.0,STARLINK-4599,PAYLOAD,2023-01-19 03:41:24,15.08866922,0.0001351,53.2177,336.2368,102.0959,258.0184,0.00039464,6.003e-05,0.0,0 STARLINK-4599,1 53631U 22104AV  23019.15375861  .00006003  00000-0  39464-3 0  9996,2 53631  53.2177 336.2368 0001351 102.0959 258.0184 15.08866922 22135,6917.798000000001,95.436,540.5980000000001,538.729,0.0
53631.0,STARLINK-4599,PAYLOAD,2023-01-19 06:52:10,15.0886997,0.0001113,53.2181,335.6423,101.0428,259.069,0.00038792,5.896e-05,0.0,0 STARLINK-4599,1 53631U 22104AV  23019.28623514  .00005896  00000-0  38792-3 0  9993,2 53631  53.2181 335.6423 0001113 101.0428 259.0690 15.08869970 22848,6917.789000000001,95.436,540.424,538.884,0.0
53631.0,STARLINK-4599,PAYLOAD,2023-01-20 03:32:14,15.08833492,0.0001682,53.2176,331.7769,88.3144,271.8041,-4.8579e-05,-1.061e-05,0.0,0 STARLINK-4599,1 53631U 22104AV  23020.14739307 -.00001061  00000-0 -48579-4 0  9995,2 53631  53.2176 331.7769 0001682  88.3144 271.8041 15.08833492 22285,6917.9,95.438,540.929,538.602,0.0
53631.0,STARLINK-4599,PAYLOAD,2023-01-21 04:58:22,15.08885835,0.0001784,53.2178,327.0188,91.9655,268.1542,-0.00019001,-3.315e-05,0.0,0 STARLINK-4599,1 53631U 22104AV  23021.20720140 -.00003315  00000-0 -19001-3 0  9999,2 53631  53.2178 327.0188 0001784  91.9655 268.1542 15.08885835 22441,6917.74,95.435,540.839,538.371,0.0
53631.0,STARLINK-4599,PAYLOAD,2023-01-21 06:33:44,15.08906894,0.0001547,53.2178,326.7214,86.8958,273.2211,-0.00036734,-6.14e-05,0.0,0 STARLINK-4599,1 53631U 22104AV  23021.27342999 -.00006140  00000-0 -36734-3 0  9999,2 53631  53.2178 326.7214 0001547  86.8958 273.2211 15.08906894 22453,6917.676,95.433,540.611,538.471,0.0
53631.0,STARLINK-4599,PAYLOAD,2023-01-21 12:55:19,15.08848348,0.0001359,53.2175,325.5296,79.2517,280.8628,-8.427e-05,-1.629e-05,0.0,0 STARLINK-4599,1 53631U 22104AV  23021.53842131 -.00001629  00000-0 -84270-4 0  9997,2 53631  53.2175 325.5296 0001359  79.2517 280.8628 15.08848348 22494,6917.855,95.437,540.66,538.78,0.0
53631.0,STARLINK-4599,PAYLOAD,2023-01-22 03:13:48,15.08838999,0.0001252,53.2172,322.8531,62.4254,297.6865,0.00011637,1.565e-05,0.0,0 STARLINK-4599,1 53631U 22104AV  23022.13458519  .00001565  00000-0  11637-3 0  9990,2 53631  53.2172 322.8531 0001252  62.4254 297.6865 15.08838999 22587,6917.883000000001,95.438,540.615,538.882,0.0
53631.0,STARLINK-4599,PAYLOAD,2023-01-22 19:07:40,15.08841114,0.0002112999999999,53.2172,319.8836,75.4238,284.6988,-6.484600000000001e-05,-1.32e-05,0.0,0 STARLINK-4599,1 53631U 22104AV  23022.79699395 -.00001320  00000-0 -64846-4 0  9993,2 53631  53.2172 319.8836 0002113  75.4238 284.6988 15.08841114 22680,6917.877,95.437,541.2040000000001,538.28,0.0
53631.0,STARLINK-4599,PAYLOAD,2023-01-24 04:30:44,15.08863504,0.0001625,53.2177,313.6368,86.6624,273.4554,0.00033671,5.078e-05,0.0,0 STARLINK-4599,1 53631U 22104AV  23024.18800938  .00005078  00000-0  33671-3 0  9998,2 53631  53.2177 313.6368 0001625  86.6624 273.4554 15.08863504 22892,6917.809,95.436,540.798,538.549,0.0
53631.0,STARLINK-4599,PAYLOAD,2023-01-25 01:10:46,15.08833708,9.46e-05,53.2181,309.7741,63.9353,296.1737,0.00019585,2.8300000000000003e-05,0.0,0 STARLINK-4599,1 53631U 22104AV  23025.04915295  .00002830  00000-0  19585-3 0  9998,2 53631  53.2181 309.7741 0000946  63.9353 296.1737 15.08833708 23024,6917.9,95.438,540.419,539.11,0.0
